360P/WISE,e,24.1083,2.2147,354.2298,3.697562,0.1386216,0.49919474,330.5116,03/05.0/2024,2000,g 19.5,6.0
# From MPEC 2023-CD7
361P/Spacewatch,e,13.9027,203.2565,219.0476,4.933807,0.0899354,0.43951320,186.1018,03/05.0/2024,2000,g 12.0,4.0
# From MPEC 2017-V13
362P/,e,15.5552,192.4953,53.5485,3.973512,0.1244349,0.27870652,342.9245,03/05.0/2024,2000,g 12.9,2.0
# From MPC114609
363P/Lemmon,e,5.3901,146.6713,340.8674,3.576261,0.1457338,0.51899875,323.1001,03/05.0/2024,2000,g 17.5,4.0
# From MPEC 2023-XP6
364P/PANSTARRS,e,12.1356,46.1487,212.0842,2.883272,0.2013148,0.72184165,59.5719,03/05.0/2024,2000,g 17.0,2.0
# From MPC111775
365P/PANSTARRS,e,9.8494,86.6568,67.4307,3.156451,0.1757541,0.58140224,25.9419,03/05.0/2024,2000,g 17.0,4.0
# From MPC114610
366P/Spacewatch,e,8.8570,70.7237,153.0291,3.498295,0.1506328,0.34829481,309.9884,03/05.0/2024,2000,g 15.0,4.0
# From MPC112395
367P/Catalina,e,8.4597,58.6611,172.7434,3.509869,0.1498883,0.27982595,313.1225,03/05.0/2024,2000,g 17.5,2.0
# From MPC114610
368P/NEAT,e,15.4807,257.8725,118.9435,5.532191,0.0757458,0.62642270,151.2613,03/05.0/2024,2000,g 14.0,4.0
# From MPC114610
369P/Hill,e,10.3229,47.2981,13.1834,4.380052,0.1075190,0.55586385,211.2482,03/05.0/2024,2000,g 15.0,4.0
# From MPEC 2021-F20
370P/NEAT,e,19.4236,55.0816,356.7346,6.436909,0.0603515,0.61553376,126.3046,03/05.0/2024,2000,g 13.0,4.0
# From MPC114610
371P/LINEAR-Skiff,e,17.3844,67.2843,308.5577,4.180502,0.1153085,0.47697249,227.8119,03/05.0/2024,2000,g 16.0,4.0
# From MPEC 2020-K19
372P/McNaught,e,9.5077,27.5504,326.0153,4.510437,0.1028907,0.15188754,201.5151,03/05.0/2024,2000,g 13.5,4.0
# From MPEC 2021-F20
373P/Rinner,e,13.7704,231.9462,221.0480,3.799009,0.1331063,0.39351824,238.3452,03/05.0/2024,2000,g 14.5,4.0
# From MPC114610
374P/Larson,e,10.7660,7.9082,51.4938,4.971081,0.0889258,0.46374170,166.9698,03/05.0/2024,2000,g 14.0,4.0
# From MPEC 2021-F20
375P/Hill,e,17.3652,359.9025,119.3765,5.547235,0.0754378,0.65965568,143.3385,03/05.0/2024,2000,g 16.0,4.0
# From MPEC 2022-K19
376P/LONEOS,e,1.1664,312.9046,285.4051,5.757901,0.0713358,0.51419941,116.4038,03/05.0/2024,2000,g 12.5,4.0
# From MPEC 2022-N37
377P/Scotti,e,9.0243,226.0431,354.9037,6.698475,0.0568513,0.25108511,75.8457,03/05.0/2024,2000,g  9.5,4.0
# From MPEC 2024-D33
378P/McNaught,e,19.1253,93.8570,193.4331,6.297840,0.0623615,0.46564125,77.3116,03/05.0/2024,2000,g 12.0,4.0
# From MPC115889
379P/Spacewatch,e,12.4494,30.5633,184.1460,3.492722,0.1509934,0.34918920,251.3902,03/05.0/2024,2000,g 15.0,4.0
# From MPEC 2023-C45
380P/PANSTARRS,e,8.0132,128.4061,87.8345,4.420232,0.1060563,0.33881884,188.4066,03/05.0/2024,2000,g 12.5,4.0
# From MPEC 2021-J28
381P/LINEAR-Spacewatch,e,28.3645,173.2865,173.8428,7.142532,0.0516328,0.68127886,83.7156,03/05.0/2024,2000,g 17.5,2.0
# From MPEC 2024-E49
382P/Larson,e,8.2946,172.4307,162.6599,5.976976,0.0674500,0.27303506,55.9767,03/05.0/2024,2000,g  8.0,4.0
# From MPEC 2022-OB6
383P/Christensen,e,12.3212,207.8505,133.7592,3.547875,0.1474863,0.59889487,234.7378,03/05.0/2024,2000,g 18.0,4.0
# From MPEC 2022-OB6
384P/Kowalski,e,7.2831,354.2024,37.7013,2.898585,0.1997215,0.61630211,320.4276,03/05.0/2024,2000,g 19.5,4.0
# From MPEC 2021-F20
385P/Hill,e,16.8293,357.0712,44.3875,4.288727,0.1109715,0.40213677,181.0303,03/05.0/2024,2000,g 13.0,4.0
# From MPEC 2021-L04
386P/PANSTARRS,e,15.2389,134.9194,353.0810,4.050757,0.1208926,0.41694792,156.3775,03/05.0/2024,2000,g 14.5,4.0
# From MPEC 2021-J28
387P/Boattini,e,8.9344,259.2475,162.8182,4.797061,0.0938083,0.73707663,153.8496,03/05.0/2024,2000,g 15.0,4.0
# From MPEC 2021-S45
388P/Gibbs,e,23.8907,37.0320,42.3157,5.240618,0.0821543,0.61920751,138.3959,03/05.0/2024,2000,g 13.0,4.0
# From MPEC 2022-OB6
389P/Siding Spring,e,160.0865,218.8833,249.3887,5.632998,0.0737216,0.70497360,112.5352,03/05.0/2024,2000,g 16.0,4.0
# From MPEC 2024-E49
390P/Gibbs,e,18.5416,152.2457,232.4701,5.814297,0.0703005,0.70726556,101.4522,03/05.0/2024,2000,g 12.0,4.0
# From MPEC 2021-F20
391P/Kowalski,e,21.2622,124.7906,187.2175,4.687845,0.0971056,0.11890924,211.4437,03/05.0/2024,2000,g  8.0,4.0
# From MPEC 2021-J28
392P/LINEAR,e,4.9319,24.8533,71.8903,6.140684,0.0647707,0.68368494,92.8242,03/05.0/2024,2000,g 14.5,4.0
# From MPEC 2023-T65
393P/Spacewatch-Hill,e,16.7874,36.3918,329.1393,4.796578,0.0938225,0.11996772,148.8250,03/05.0/2024,2000,g 11.0,4.0
# From MPEC 2020-KB7
394P/PANSTARRS,e,8.5296,98.1255,54.4045,4.328672,0.1094390,0.36773151,170.4532,03/05.0/2024,2000,g 16.0,2.4
# From MPEC 2024-C04
395P/Catalina-NEAT,e,3.5810,221.0341,99.3893,7.165944,0.0513800,0.41563876,38.3549,03/05.0/2024,2000,g 10.0,4.0
# From MPEC 2020-KB7
396P/,e,5.4392,136.6279,8.3214,6.801098,0.0555694,0.41630170,91.7616,03/05.0/2024,2000,g 12.0,4.0
# From MPEC 2022-OB6
397P/Lemmon,e,10.9262,8.2264,14.5514,3.831151,0.1314347,0.40507754,177.9408,03/05.0/2024,2000,g 12.0,4.0
# From MPEC 2021-L04
398P/Boattini,e,11.0214,320.1538,127.4951,3.125668,0.1783568,0.58352490,207.5155,03/05.0/2024,2000,g 15.5,4.0
# From MPEC 2023-XP6
399P/PANSTARRS,e,13.3216,207.1302,214.3900,3.792940,0.1334259,0.44743405,135.6687,03/05.0/2024,2000,g 14.0,4.0
# From MPEC 2022-ED3
400P/PANSTARRS,e,10.9298,176.4058,238.8519,3.561925,0.1466145,0.40971141,163.9316,03/05.0/2024,2000,g 15.5,2.8
# From MPEC 2022-K19
401P/McNaught,e,12.8018,359.9043,309.4263,5.777890,0.0709660,0.57883356,110.1007,03/05.0/2024,2000,g 12.5,4.0
# From MPEC 2024-DC6
402P/LINEAR,e,30.8339,123.0731,326.8457,7.033051,0.0528431,0.43991352,42.8380,03/05.0/2024,2000,g  8.0,4.0
# From MPEC 2021-J28
403P/Catalina,e,12.3275,277.5821,163.8882,5.430239,0.0778889,0.50424218,98.5151,03/05.0/2024,2000,g 12.0,4.0
# From MPEC 2024-E49
404P/Bressi,e,9.8002,260.0355,169.3799,4.730031,0.0958094,0.12628859,11.6711,03/05.0/2024,2000,g 10.0,4.0
# From MPEC 2021-L04
405P/Lemmon,e,9.3743,112.1898,3.2949,3.604934,0.1439986,0.68978388,167.9442,03/05.0/2024,2000,g 17.5,4.0
# From MPEC 2021-F20
406P/Gibbs,e,1.2113,352.4172,11.5374,3.578196,0.1456156,0.54161096,184.3618,03/05.0/2024,2000,g 17.0,4.0
# From MPEC 2022-YN2
407P/PANSTARRS-Fuls,e,4.8757,80.2537,93.4998,3.484300,0.1515412,0.37721502,227.7359,03/05.0/2024,2000,g 14.0,4.0
# From MPEC 2024-E49
408P/Novichonok-Gerke,e,19.3565,189.4434,226.5672,4.743133,0.0954127,0.26868858,49.2681,03/05.0/2024,2000,g 11.0,4.0
# From MPEC 2022-ED3
409P/LONEOS-Hill,e,17.1323,143.6499,15.0599,6.034503,0.0664878,0.70980906,75.2598,03/05.0/2024,2000,g 14.0,4.0
# From MPEC 2022-M21
410P/NEAT-LINEAR,e,9.3892,139.9738,313.1468,6.647262,0.0575095,0.51159254,56.6379,03/05.0/2024,2000,g 12.5,4.0
# From MPEC 2021-J28
411P/Christensen,e,12.3884,77.6525,46.5588,5.811448,0.0703522,0.58132200,79.8697,03/05.0/2024,2000,g 13.5,4.0
# From MPEC 2021-F20
412P/WISE,e,8.9310,0.8456,155.9029,3.110491,0.1796638,0.47893745,213.2282,03/05.0/2024,2000,g 17.0,4.0
# From MPEC 2022-OB6
413P/Larson,e,15.9816,39.2260,186.5360,3.731104,0.1367565,0.42000282,131.2726,03/05.0/2024,2000,g 14.0,4.0
# From MPEC 2021-BE3
414P/STEREO,e,23.4061,257.8165,210.6862,2.792903,0.2111642,0.81207073,239.5560,03/05.0/2024,2000,g 19.0,4.0
# From MPEC 2022-J42
415P/Tenagra,e,31.7963,160.2720,345.8933,4.110020,0.1182873,0.19501997,131.9508,03/05.0/2024,2000,g 12.0,4.0
# From MPEC 2021-L04
416P/Scotti,e,3.3617,355.7705,134.4064,4.007999,0.1228323,0.45489932,136.7551,03/05.0/2024,2000,g 15.5,4.0
# From MPEC 2021-W31
417P/NEOWISE,e,8.2291,125.3693,114.4399,3.313103,0.1634375,0.56876475,170.1150,03/05.0/2024,2000,g 16.5,4.0
# From MPEC 2022-TA0
418P/LINEAR,e,5.7802,277.6538,307.3670,5.094664,0.0857099,0.66383526,74.5770,03/05.0/2024,2000,g 13.0,4.0
# From MPEC 2023-UR6
419P/PANSTARRS,e,2.8017,40.4073,187.8521,3.526800,0.1488102,0.27626743,127.8748,03/05.0/2024,2000,g 12.5,4.0
# From MPEC 2024-C04
420P/Hill,e,14.4853,173.8125,156.5725,5.505980,0.0762873,0.49553455,49.9545,03/05.0/2024,2000,g 11.5,4.0
# From MPEC 2021-W31
421P/McNaught,e,10.0758,55.3317,259.8976,5.076377,0.0861734,0.67474895,97.8030,03/05.0/2024,2000,g 14.0,4.0
# From MPEC 2022-X67
422P/Christensen,e,39.5842,36.0262,304.8479,6.283488,0.0625753,0.50644354,48.9950,03/05.0/2024,2000,g 11.0,4.0
# From MPEC 2023-FK0
423P/Lemmon,e,8.3458,33.2975,80.5082,6.175786,0.0642193,0.12237725,57.5190,03/05.0/2024,2000,g  8.0,4.0
# From MPEC 2022-CN4
424P/LaSagra,e,8.6830,51.1923,312.5465,4.419133,0.1060959,0.69098935,90.7625,03/05.0/2024,2000,g 17.0,4.0
# From MPEC 2024-C04
425P/Kowalski,e,16.4206,210.0749,200.8985,6.345259,0.0616638,0.54403285,55.2504,03/05.0/2024,2000,g 12.0,4.0
# From MPEC 2024-A43
426P/PANSTARRS,e,17.7781,280.3967,118.6366,3.188638,0.1730997,0.16156731,30.3844,03/05.0/2024,2000,g 13.5,4.0
# From MPEC 2023-J29
428P/Gibbs,e,8.5066,299.3306,36.8998,3.487027,0.1513635,0.51877557,155.2645,03/05.0/2024,2000,g 15.0,4.0
# From MPEC 2024-E49
429P/LINEAR-Hill,e,7.5170,322.0551,75.6534,3.554277,0.1470880,0.49132248,116.5937,03/05.0/2024,2000,g 15.5,4.0
# From MPEC 2022-L66
430P/Scotti,e,4.4753,54.6704,94.4250,3.104319,0.1801999,0.49979225,148.4472,03/05.0/2024,2000,g 16.5,4.0
# From MPEC 2024-E49
431P/Scotti,e,22.3910,202.8430,199.9545,3.475634,0.1521083,0.47773502,114.1484,03/05.0/2024,2000,g 14.0,4.0
# From MPEC 2021-U31
432P/PANSTARRS,e,10.0683,239.1306,105.3221,3.036846,0.1862387,0.24137355,170.9521,03/05.0/2024,2000,g 17.0,4.0
# From MPEC 2024-D33
434P/Tenagra,e,6.3361,288.9398,128.2948,4.133326,0.1172883,0.27470959,100.8880,03/05.0/2024,2000,g 13.0,4.0
# From MPEC 2021-W31
435P/PANSTARRS,e,18.8751,98.5366,244.2425,3.020245,0.1877763,0.31806876,178.7317,03/05.0/2024,2000,g 17.0,4.0
# From MPEC 2022-X67
436P/Garradd,e,20.2016,87.1696,282.7018,5.934628,0.0681732,0.66962828,55.7358,03/05.0/2024,2000,g 14.5,4.0
# From MPEC 2023-B57
437P/Lemmon-PANSTARRS,e,3.6889,245.8452,206.8831,4.565157,0.1010463,0.25499754,56.9579,03/05.0/2024,2000,g 13.0,4.0
# From MPEC 2021-W47
438P/Christensen,e,8.2813,260.1188,59.0382,3.850517,0.1304444,0.41466273,186.6430,03/05.0/2024,2000,g 14.5,4.0
# From MPEC 2022-C56
